{
  "norad_id": 64603,
  "name": "STARLINK-34475",
  "history": [
    {
      "epoch": "2026-03-28T18:11:00.693024",
      "apogee_km": 475.982458631438,
      "perigee_km": 474.4048219180477,
      "latitude_deg": -37.562456068503,
      "longitude_deg": -6.965896639972925,
      "semi_major_axis_km": 6853.330640274743,
      "eccentricity": 0.0001151,
      "inclination_deg": 53.1586,
      "raan_deg": 246.7108,
      "arg_perigee_deg": 73.7075,
      "mean_anomaly_deg": 286.4053,
      "mean_motion_rev_day": 15.30207177
    }
  ]
}