{"fetched_at":"2026-03-30T06:02:59Z","count":15439,"tles":[{"name":"STARLINK-34475","line1":"1 64603U 25137K   26087.75764691  .00019707  00000+0  67557-3 0  9991","line2":"2 64603  53.1586 246.7108 0001151  73.7075 286.4053 15.30207177 43653","category":"Starlink"}]}